{
    "links": {
        "self": "http://www.neowsapp.com/rest/v1/neo/3836733?api_key=iIulBulltgU6a56xZRHN4H3l9WmuAYTsLGpBGhQ2"
    },
    "id": "3836733",
    "neo_reference_id": "3836733",
    "name": "(2018 XS)",
    "designation": "2018 XS",
    "nasa_jpl_url": "http://ssd.jpl.nasa.gov/sbdb.cgi?sstr=3836733",
    "absolute_magnitude_h": 22.1,
    "estimated_diameter": {
        "kilometers": {
            "estimated_diameter_min": 0.1010543415,
            "estimated_diameter_max": 0.2259643771
        },
        "meters": {
            "estimated_diameter_min": 101.054341542,
            "estimated_diameter_max": 225.9643771094
        },
        "miles": {
            "estimated_diameter_min": 0.0627922373,
            "estimated_diameter_max": 0.140407711
        },
        "feet": {
            "estimated_diameter_min": 331.5431259047,
            "estimated_diameter_max": 741.3529669956
        }
    },
    "is_potentially_hazardous_asteroid": false,
    "close_approach_data": [
        {
            "close_approach_date": "2015-12-12",
            "close_approach_date_full": "2015-Dec-12 13:44",
            "epoch_date_close_approach": 1449927840000,
            "relative_velocity": {
                "kilometers_per_second": "20.7409132274",
                "kilometers_per_hour": "74667.287618613",
                "miles_per_hour": "46395.3487983543"
            },
            "miss_distance": {
                "astronomical": "0.382487436",
                "lunar": "148.787612604",
                "kilometers": "57219305.72736132",
                "miles": "35554427.898253416"
            },
            "orbiting_body": "Earth"
        },
        {
            "close_approach_date": "2018-11-05",
            "close_approach_date_full": "2018-Nov-05 14:34",
            "epoch_date_close_approach": 1541428440000,
            "relative_velocity": {
                "kilometers_per_second": "8.9246210441",
                "kilometers_per_hour": "32128.6357586486",
                "miles_per_hour": "19963.4848134781"
            },
            "miss_distance": {
                "astronomical": "0.0623383679",
                "lunar": "24.2496251131",
                "kilometers": "9325687.057116373",
                "miles": "5794713.2328690274"
            },
            "orbiting_body": "Earth"
        },
        {
            "close_approach_date": "2021-08-17",
            "close_approach_date_full": "2021-Aug-17 18:03",
            "epoch_date_close_approach": 1629223380000,
            "relative_velocity": {
                "kilometers_per_second": "14.7638988617",
                "kilometers_per_hour": "53150.0359021106",
                "miles_per_hour": "33025.3653637309"
            },
            "miss_distance": {
                "astronomical": "0.1753099861",
                "lunar": "68.1955845929",
                "kilometers": "26226000.510289607",
                "miles": "16296081.0577742966"
            },
            "orbiting_body": "Earth"
        }
    ],
    "orbital_data": {
        "orbit_id": "7",
        "orbit_determination_date": "2020-11-10 05:19:13",
        "first_observation_date": "2018-11-27",
        "last_observation_date": "2019-01-08",
        "data_arc_in_days": 42,
        "observations_used": 42,
        "orbit_uncertainty": "7",
        "minimum_orbit_intersection": ".00907064",
        "jupiter_tisserand_invariant": "3.597",
        "epoch_osculation": "2459000.5",
        "eccentricity": ".5358859719587841",
        "semi_major_axis": "2.048948243102926",
        "inclination": "3.94532359241991",
        "ascending_node_longitude": "337.9797141447904",
        "orbital_period": "1071.260049606555",
        "perihelion_distance": ".9509456223544718",
        "perihelion_argument": "40.73786471376334",
        "aphelion_distance": "3.146950863851381",
        "perihelion_time": "2459480.691523151795",
        "mean_anomaly": "198.6302668543123",
        "mean_motion": ".3360528567570668",
        "equinox": "J2000",
        "orbit_class": {
            "orbit_class_type": "APO",
            "orbit_class_description": "Near-Earth asteroid orbits which cross the Earth’s orbit similar to that of 1862 Apollo",
            "orbit_class_range": "a (semi-major axis) > 1.0 AU; q (perihelion) < 1.017 AU"
        }
    },
    "is_sentry_object": false
}